CTC2_L_00269001-01
1 43879U 26249RX  26037.47793981  .00000000  00000+0  00000-0 0  9999
2 43879  85.0000   0.0000 0000000   0.0000   0.0000 13.98209858    10
CTC2_L_00269001-02
1 43880U 22411MF  26037.47793981  .00000000  00000+0  00000-0 0  9998
2 43880  85.0000   0.0000 0000000   0.0000  90.0000 13.98209858    11
CTC2_L_00269001-03
1 43881U 24876BS  26037.47793981  .00000000  00000+0  00000-0 0  9996
2 43881  85.0000   0.0000 0000000   0.0000 180.0000 13.98209858    12
CTC2_L_00269001-04
1 43882U 26005VK  26037.47793981  .00000000  00000+0  00000-0 0  9993
2 43882  85.0000   0.0000 0000000   0.0000 270.0000 13.98209858    13
CTC2_L_00269002-01
1 43883U 22653OL  26037.47793981  .00000000  00000+0  00000-0 0  9999
2 43883  85.0000  12.0000 0000000   0.0000  12.0000 13.98209858    11
CTC2_L_00269002-02
1 43884U 24388MK  26037.47793981  .00000000  00000+0  00000-0 0  9997
2 43884  85.0000  12.0000 0000000   0.0000 102.0000 13.98209858    12
CTC2_L_00269002-03
1 43885U 24648RT  26037.47793981  .00000000  00000+0  00000-0 0  9997
2 43885  85.0000  12.0000 0000000   0.0000 192.0000 13.98209858    12
CTC2_L_00269002-04
1 43886U 22735UZ  26037.47793981  .00000000  00000+0  00000-0 0  9993
2 43886  85.0000  12.0000 0000000   0.0000 282.0000 13.98209858    13
CTC2_L_00269003-01
1 43887U 24973FS  26037.47793981  .00000000  00000+0  00000-0 0  9990
2 43887  85.0000  24.0000 0000000   0.0000  24.0000 13.98209858    11
CTC2_L_00269003-02
1 43888U 26102OX  26037.47793981  .00000000  00000+0  00000-0 0  9997
2 43888  85.0000  24.0000 0000000   0.0000 114.0000 13.98209858    12
CTC2_L_00269003-03
1 43889U 23685OE  26037.47793981  .00000000  00000+0  00000-0 0  9991
2 43889  85.0000  24.0000 0000000   0.0000 204.0000 13.98209858    13
CTC2_L_00269003-04
1 43890U 25157RZ  26037.47793981  .00000000  00000+0  00000-0 0  9999
2 43890  85.0000  24.0000 0000000   0.0000 294.0000 13.98209858    14
CTC2_L_00269004-01
1 43891U 24375GH  26037.47793981  .00000000  00000+0  00000-0 0  9991
2 43891  85.0000  36.0000 0000000   0.0000  36.0000 13.98209858    12
CTC2_L_00269004-02
1 43892U 25734WH  26037.47793981  .00000000  00000+0  00000-0 0  9992
2 43892  85.0000  36.0000 0000000   0.0000 126.0000 13.98209858    13
CTC2_L_00269004-03
1 43893U 26773KT  26037.47793981  .00000000  00000+0  00000-0 0  9997
2 43893  85.0000  36.0000 0000000   0.0000 216.0000 13.98209858    14
CTC2_L_00269004-04
1 43894U 24528SF  26037.47793981  .00000000  00000+0  00000-0 0  9994
2 43894  85.0000  36.0000 0000000   0.0000 306.0000 13.98209858    15
CTC2_L_00269005-01
1 43895U 24412VV  26037.47793981  .00000000  00000+0  00000-0 0  9997
2 43895  85.0000  48.0000 0000000   0.0000  48.0000 13.98209858    12
CTC2_L_00269005-02
1 43896U 26164KH  26037.47793981  .00000000  00000+0  00000-0 0  9994
2 43896  85.0000  48.0000 0000000   0.0000 138.0000 13.98209858    13
CTC2_L_00269005-03
1 43897U 23482NR  26037.47793981  .00000000  00000+0  00000-0 0  9995
2 43897  85.0000  48.0000 0000000   0.0000 228.0000 13.98209858    14
CTC2_L_00269005-04
1 43898U 25141OM  26037.47793981  .00000000  00000+0  00000-0 0  9990
2 43898  85.0000  48.0000 0000000   0.0000 318.0000 13.98209858    15
CTC2_L_00269006-01
1 43899U 25247OR  26037.47793981  .00000000  00000+0  00000-0 0  9998
2 43899  85.0000  60.0000 0000000   0.0000  60.0000 13.98209858    14
CTC2_L_00269006-02
1 43900U 22626YL  26037.47793981  .00000000  00000+0  00000-0 0  9999
2 43900  85.0000  60.0000 0000000   0.0000 150.0000 13.98209858    17
CTC2_L_00269006-03
1 43901U 25903IE  26037.47793981  .00000000  00000+0  00000-0 0  9991
2 43901  85.0000  60.0000 0000000   0.0000 240.0000 13.98209858    18
CTC2_L_00269006-04
1 43902U 25728WT  26037.47793981  .00000000  00000+0  00000-0 0  9997
2 43902  85.0000  60.0000 0000000   0.0000 330.0000 13.98209858    19
CTC2_L_00269007-01
1 43903U 25724EM  26037.47793981  .00000000  00000+0  00000-0 0  9994
2 43903  85.0000  72.0000 0000000   0.0000  72.0000 13.98209858    16
CTC2_L_00269007-02
1 43904U 26817XX  26037.47793981  .00000000  00000+0  00000-0 0  9999
2 43904  85.0000  72.0000 0000000   0.0000 162.0000 13.98209858    17
CTC2_L_00269007-03
1 43905U 25891DM  26037.47793981  .00000000  00000+0  00000-0 0  9991
2 43905  85.0000  72.0000 0000000   0.0000 252.0000 13.98209858    18
CTC2_L_00269007-04
1 43906U 25638NF  26037.47793981  .00000000  00000+0  00000-0 0  9991
2 43906  85.0000  72.0000 0000000   0.0000 342.0000 13.98209858    19
CTC2_L_00269008-01
1 43907U 25702XK  26037.47793981  .00000000  00000+0  00000-0 0  9994
2 43907  85.0000  84.0000 0000000   0.0000  84.0000 13.98209858    16
CTC2_L_00269008-02
1 43908U 26942DL  26037.47793981  .00000000  00000+0  00000-0 0  9992
2 43908  85.0000  84.0000 0000000   0.0000 174.0000 13.98209858    17
CTC2_L_00269008-03
1 43909U 22439ZA  26037.47793981  .00000000  00000+0  00000-0 0  9990
2 43909  85.0000  84.0000 0000000   0.0000 264.0000 13.98209858    18
CTC2_L_00269008-04
1 43910U 24745DM  26037.47793981  .00000000  00000+0  00000-0 0  9994
2 43910  85.0000  84.0000 0000000   0.0000 354.0000 13.98209858    10
CTC2_L_00269009-01
1 43911U 25478HC  26037.47793981  .00000000  00000+0  00000-0 0  9999
2 43911  85.0000  96.0000 0000000   0.0000  96.0000 13.98209858    17
CTC2_L_00269009-02
1 43912U 25352BV  26037.47793981  .00000000  00000+0  00000-0 0  9991
2 43912  85.0000  96.0000 0000000   0.0000 186.0000 13.98209858    18
CTC2_L_00269009-03
1 43913U 25866VF  26037.47793981  .00000000  00000+0  00000-0 0  9992
2 43913  85.0000  96.0000 0000000   0.0000 276.0000 13.98209858    19
CTC2_L_00269009-04
1 43914U 26133DA  26037.47793981  .00000000  00000+0  00000-0 0  9991
2 43914  85.0000  96.0000 0000000   0.0000   6.0000 13.98209858    11
CTC2_L_00269010-01
1 43915U 26295GU  26037.47793981  .00000000  00000+0  00000-0 0  9991
2 43915  85.0000 108.0000 0000000   0.0000 108.0000 13.98209858    19
CTC2_L_00269010-02
1 43916U 23304X   26037.47793981  .00000000  00000+0  00000-0 0  9990
2 43916  85.0000 108.0000 0000000   0.0000 198.0000 13.98209858    19
CTC2_L_00269010-03
1 43917U 26060NE  26037.47793981  .00000000  00000+0  00000-0 0  9993
2 43917  85.0000 108.0000 0000000   0.0000 288.0000 13.98209858    10
CTC2_L_00269010-04
1 43918U 26243JN  26037.47793981  .00000000  00000+0  00000-0 0  9997
2 43918  85.0000 108.0000 0000000   0.0000  18.0000 13.98209858    12
CTC2_L_00269011-01
1 43919U 26905MW  26037.47793981  .00000000  00000+0  00000-0 0  9993
2 43919  85.0000 120.0000 0000000   0.0000 120.0000 13.98209858    11
CTC2_L_00269011-02
1 43920U 26376VR  26037.47793981  .00000000  00000+0  00000-0 0  9997
2 43920  85.0000 120.0000 0000000   0.0000 210.0000 13.98209858    13
CTC2_L_00269011-03
1 43921U 25524XE  26037.47793981  .00000000  00000+0  00000-0 0  9992
2 43921  85.0000 120.0000 0000000   0.0000 300.0000 13.98209858    14
CTC2_L_00269011-04
1 43922U 23702TP  26037.47793981  .00000000  00000+0  00000-0 0  9999
2 43922  85.0000 120.0000 0000000   0.0000  30.0000 13.98209858    15
CTC2_L_00269012-01
1 43923U 23334OJ  26037.47793981  .00000000  00000+0  00000-0 0  9991
2 43923  85.0000 132.0000 0000000   0.0000 132.0000 13.98209858    12
CTC2_L_00269012-02
1 43924U 22821BW  26037.47793981  .00000000  00000+0  00000-0 0  9992
2 43924  85.0000 132.0000 0000000   0.0000 222.0000 13.98209858    13
CTC2_L_00269012-03
1 43925U 25236DL  26037.47793981  .00000000  00000+0  00000-0 0  9996
2 43925  85.0000 132.0000 0000000   0.0000 312.0000 13.98209858    14
CTC2_L_00269012-04
1 43926U 26296NI  26037.47793981  .00000000  00000+0  00000-0 0  9994
2 43926  85.0000 132.0000 0000000   0.0000  42.0000 13.98209858    15
CTC2_L_00269013-01
1 43927U 25504TX  26037.47793981  .00000000  00000+0  00000-0 0  9996
2 43927  85.0000 144.0000 0000000   0.0000 144.0000 13.98209858    12
CTC2_L_00269013-02
1 43928U 26282LD  26037.47793981  .00000000  00000+0  00000-0 0  9991
2 43928  85.0000 144.0000 0000000   0.0000 234.0000 13.98209858    13
CTC2_L_00269013-03
1 43929U 22247SL  26037.47793981  .00000000  00000+0  00000-0 0  9999
2 43929  85.0000 144.0000 0000000   0.0000 324.0000 13.98209858    14
CTC2_L_00269013-04
1 43930U 25022MF  26037.47793981  .00000000  00000+0  00000-0 0  9995
2 43930  85.0000 144.0000 0000000   0.0000  54.0000 13.98209858    16
CTC2_L_00269014-01
1 43931U 24579PN  26037.47793981  .00000000  00000+0  00000-0 0  9992
2 43931  85.0000 156.0000 0000000   0.0000 156.0000 13.98209858    13
CTC2_L_00269014-02
1 43932U 23077XA  26037.47793981  .00000000  00000+0  00000-0 0  9995
2 43932  85.0000 156.0000 0000000   0.0000 246.0000 13.98209858    14
CTC2_L_00269014-03
1 43933U 24364C   26037.47793981  .00000000  00000+0  00000-0 0  9996
2 43933  85.0000 156.0000 0000000   0.0000 336.0000 13.98209858    15
CTC2_L_00269014-04
1 43934U 24062PK  26037.47793981  .00000000  00000+0  00000-0 0  9992
2 43934  85.0000 156.0000 0000000   0.0000  66.0000 13.98209858    16
CTC2_L_00269015-01
1 43935U 23736PC  26037.47793981  .00000000  00000+0  00000-0 0  9990
2 43935  85.0000 168.0000 0000000   0.0000 168.0000 13.98209858    13
CTC2_L_00269015-02
1 43936U 24208RC  26037.47793981  .00000000  00000+0  00000-0 0  9996
2 43936  85.0000 168.0000 0000000   0.0000 258.0000 13.98209858    14
CTC2_L_00269015-03
1 43937U 22215IZ  26037.47793981  .00000000  00000+0  00000-0 0  9993
2 43937  85.0000 168.0000 0000000   0.0000 348.0000 13.98209858    15
CTC2_L_00269015-04
1 43938U 25427RN  26037.47793981  .00000000  00000+0  00000-0 0  9992
2 43938  85.0000 168.0000 0000000   0.0000  78.0000 13.98209858    16
CTC2_L_00269016-01
1 43939U 26944OZ  26037.47793981  .00000000  00000+0  00000-0 0  9998
2 43939  85.0000 180.0000 0000000   0.0000 180.0000 13.98209858    15
CTC2_L_00269016-02
1 43940U 26985ES  26037.47793981  .00000000  00000+0  00000-0 0  9995
2 43940  85.0000 180.0000 0000000   0.0000 270.0000 13.98209858    17
